0 COSMOS 1275 DEB
1 14741U 81053JZ  13282.77360578  .00000672  00000-0  95417-3 0  6523
2 14741 082.9690 192.3742 0169972 343.4361 068.6030 13.49598493577185
0 COSMOS 1275 DEB
1 14741U 81053JZ  13287.16862162  .00000793  00000-0  11294-2 0  6543
2 14741 082.9692 189.2670 0169545 331.7381 182.0152 13.49605005577779
0 COSMOS 1275 DEB
1 14741U 81053JZ  13289.17078144  .00000861  00000-0  12281-2 0  6559
2 14741 082.9689 187.8515 0169373 326.3715 189.6882 13.49609595578049
0 COSMOS 1275 DEB
1 14741U 81053JZ  13291.17187755  .00000809  00000-0  11535-2 0  6565
2 14741 082.9686 186.4369 0169198 321.0266 192.2017 13.49612968578314
0 COSMOS 1275 DEB
1 14741U 81053JZ  13293.45119872  .00000832  00000-0  11872-2 0  6574
2 14741 082.9685 184.8256 0168963 314.9389 106.5314 13.49616810578628
0 COSMOS 1275 DEB
1 14741U 81053JZ  13296.13325561  .00000817  00000-0  11657-2 0  6581
2 14741 082.9683 182.9292 0168724 307.7563 177.6533 13.49621830578983
